{
  "type": "FeatureCollection",
  "features": [
    {
      "type": "Feature",
      "properties": {
        "norad_id": 44333,
        "name": "AT&T T-16",
        "group": "intelsat",
        "lat": -0.010899199719241174,
        "lon": -133.70395696538128,
        "alt_km": 35784.577603583486,
        "timestamp": "2025-12-06T16:45:42.394494+00:00",
        "meta_object_name": "AT&T T-16",
        "meta_object_id": "2019-034A",
        "meta_epoch": "2025-12-05T21:46:40.325088",
        "meta_mean_motion": 1.00271318,
        "meta_eccentricity": 6.937e-05,
        "meta_inclination": 0.0289,
        "meta_ra_of_asc_node": 66.1436,
        "meta_arg_of_pericenter": 104.688,
        "meta_mean_anomaly": 129.9319,
        "meta_ephemeris_type": 0,
        "meta_classification_type": "U",
        "meta_norad_cat_id": 44333,
        "meta_element_set_no": 999,
        "meta_rev_at_epoch": 2369,
        "meta_bstar": 0,
        "meta_mean_motion_dot": -1.06e-06,
        "meta_mean_motion_ddot": 0,
        "tle_line1": "1 44333U 19034A   25339.90741117 -.00000106  00000+0  00000+0 0  9992",
        "tle_line2": "2 44333   0.0289  66.1436 0000693 104.6880 129.9319  1.00271318 23696"
      },
      "geometry": {
        "type": "Point",
        "coordinates": [
          -133.70395696538128,
          -0.010899199719241174
        ]
      }
    },
    {
      "type": "Feature",
      "properties": {
        "norad_id": 44476,
        "name": "INTELSAT 39 (IS-39)",
        "group": "intelsat",
        "lat": 0.03602319886295823,
        "lon": 29.087555697296377,
        "alt_km": 35788.67711127759,
        "timestamp": "2025-12-06T16:45:42.394506+00:00",
        "meta_object_name": "INTELSAT 39 (IS-39)",
        "meta_object_id": "2019-049B",
        "meta_epoch": "2025-12-06T05:23:59.579232",
        "meta_mean_motion": 1.0027014,
        "meta_eccentricity": 8.181e-05,
        "meta_inclination": 0.0171,
        "meta_ra_of_asc_node": 327.3545,
        "meta_arg_of_pericenter": 190.9753,
        "meta_mean_anomaly": 59.8838,
        "meta_ephemeris_type": 0,
        "meta_classification_type": "U",
        "meta_norad_cat_id": 44476,
        "meta_element_set_no": 999,
        "meta_rev_at_epoch": 2319,
        "meta_bstar": 0,
        "meta_mean_motion_dot": 4.2e-07,
        "meta_mean_motion_ddot": 0,
        "tle_line1": "1 44476U 19049B   25340.22499513  .00000042  00000+0  00000+0 0  9991",
        "tle_line2": "2 44476   0.0171 327.3545 0000818 190.9753  59.8838  1.00270140 23197"
      },
      "geometry": {
        "type": "Point",
        "coordinates": [
          29.087555697296377,
          0.03602319886295823
        ]
      }
    },
    {
      "type": "Feature",
      "properties": {
        "norad_id": 46114,
        "name": "GALAXY 30 (G-30)",
        "group": "intelsat",
        "lat": -0.02899085236934031,
        "lon": -157.87507783852953,
        "alt_km": 35779.79529304862,
        "timestamp": "2025-12-06T16:45:42.394517+00:00",
        "meta_object_name": "GALAXY 30 (G-30)",
        "meta_object_id": "2020-056C",
        "meta_epoch": "2025-12-06T06:13:24.843648",
        "meta_mean_motion": 1.0027024,
        "meta_eccentricity": 0.00024879,
        "meta_inclination": 0.016,
        "meta_ra_of_asc_node": 339.3733,
        "meta_arg_of_pericenter": 273.2782,
        "meta_mean_anomaly": 151.0031,
        "meta_ephemeris_type": 0,
        "meta_classification_type": "U",
        "meta_norad_cat_id": 46114,
        "meta_element_set_no": 999,
        "meta_rev_at_epoch": 1935,
        "meta_bstar": 0,
        "meta_mean_motion_dot": 4.5e-07,
        "meta_mean_motion_ddot": 0,
        "tle_line1": "1 46114U 20056C   25340.25931532  .00000045  00000+0  00000+0 0  9990",
        "tle_line2": "2 46114   0.0160 339.3733 0002487 273.2782 151.0031  1.00270240 19353"
      },
      "geometry": {
        "type": "Point",
        "coordinates": [
          -157.87507783852953,
          -0.02899085236934031
        ]
      }
    },
    {
      "type": "Feature",
      "properties": {
        "norad_id": 54026,
        "name": "GALAXY 33 (G-33)",
        "group": "intelsat",
        "lat": -0.0030619244517059094,
        "lon": -165.87371222608695,
        "alt_km": 35781.288274131046,
        "timestamp": "2025-12-06T16:45:42.394529+00:00",
        "meta_object_name": "GALAXY 33 (G-33)",
        "meta_object_id": "2022-128A",
        "meta_epoch": "2025-12-06T05:54:31.029408",
        "meta_mean_motion": 1.00269982,
        "meta_eccentricity": 0.00022492,
        "meta_inclination": 0.0173,
        "meta_ra_of_asc_node": 36.0908,
        "meta_arg_of_pericenter": 214.4821,
        "meta_mean_anomaly": 140.3457,
        "meta_ephemeris_type": 0,
        "meta_classification_type": "U",
        "meta_norad_cat_id": 54026,
        "meta_element_set_no": 999,
        "meta_rev_at_epoch": 1180,
        "meta_bstar": 0,
        "meta_mean_motion_dot": 8.7e-07,
        "meta_mean_motion_ddot": 0,
        "tle_line1": "1 54026U 22128A   25340.24619247  .00000087  00000+0  00000+0 0  9994",
        "tle_line2": "2 54026   0.0173  36.0908 0002249 214.4821 140.3457  1.00269982 11806"
      },
      "geometry": {
        "type": "Point",
        "coordinates": [
          -165.87371222608695,
          -0.0030619244517059094
        ]
      }
    },
    {
      "type": "Feature",
      "properties": {
        "norad_id": 54027,
        "name": "GALAXY 34 (G-34)",
        "group": "intelsat",
        "lat": -0.0285476331022219,
        "lon": -161.80386171183852,
        "alt_km": 35782.93875856531,
        "timestamp": "2025-12-06T16:45:42.394540+00:00",
        "meta_object_name": "GALAXY 34 (G-34)",
        "meta_object_id": "2022-128B",
        "meta_epoch": "2025-12-06T05:56:29.506272",
        "meta_mean_motion": 1.00269731,
        "meta_eccentricity": 0.00013375,
        "meta_inclination": 0.0207,
        "meta_ra_of_asc_node": 342.5659,
        "meta_arg_of_pericenter": 264.9149,
        "meta_mean_anomaly": 147.9933,
        "meta_ephemeris_type": 0,
        "meta_classification_type": "U",
        "meta_norad_cat_id": 54027,
        "meta_element_set_no": 999,
        "meta_rev_at_epoch": 1197,
        "meta_bstar": 0,
        "meta_mean_motion_dot": 0,
        "meta_mean_motion_ddot": 0,
        "tle_line1": "1 54027U 22128B   25340.24756373  .00000000  00000+0  00000+0 0  9992",
        "tle_line2": "2 54027   0.0207 342.5659 0001337 264.9149 147.9933  1.00269731 11975"
      },
      "geometry": {
        "type": "Point",
        "coordinates": [
          -161.80386171183852,
          -0.0285476331022219
        ]
      }
    },
    {
      "type": "Feature",
      "properties": {
        "norad_id": 54243,
        "name": "GALAXY 31 (G-31)",
        "group": "intelsat",
        "lat": -0.0057149045883513345,
        "lon": -153.86888463482063,
        "alt_km": 35782.1990030457,
        "timestamp": "2025-12-06T16:45:42.394552+00:00",
        "meta_object_name": "GALAXY 31 (G-31)",
        "meta_object_id": "2022-153A",
        "meta_epoch": "2025-12-06T06:14:32.237376",
        "meta_mean_motion": 1.00270777,
        "meta_eccentricity": 0.00019728,
        "meta_inclination": 0.0101,
        "meta_ra_of_asc_node": 58.837,
        "meta_arg_of_pericenter": 207.6603,
        "meta_mean_anomaly": 141.4417,
        "meta_ephemeris_type": 0,
        "meta_classification_type": "U",
        "meta_norad_cat_id": 54243,
        "meta_element_set_no": 999,
        "meta_rev_at_epoch": 519,
        "meta_bstar": 0,
        "meta_mean_motion_dot": 2.1e-07,
        "meta_mean_motion_ddot": 0,
        "tle_line1": "1 54243U 22153A   25340.26009534  .00000021  00000+0  00000+0 0  9995",
        "tle_line2": "2 54243   0.0101  58.8370 0001972 207.6603 141.4417  1.00270777  5194"
      },
      "geometry": {
        "type": "Point",
        "coordinates": [
          -153.86888463482063,
          -0.0057149045883513345
        ]
      }
    },
    {
      "type": "Feature",
      "properties": {
        "norad_id": 54244,
        "name": "GALAXY 32 (G-32)",
        "group": "intelsat",
        "lat": -0.03396445656292787,
        "lon": -123.83398401193568,
        "alt_km": 35779.58513245185,
        "timestamp": "2025-12-06T16:45:42.394563+00:00",
        "meta_object_name": "GALAXY 32 (G-32)",
        "meta_object_id": "2022-153B",
        "meta_epoch": "2025-12-04T13:17:37.099104",
        "meta_mean_motion": 1.00275803,
        "meta_eccentricity": 0.00027886,
        "meta_inclination": 0.0107,
        "meta_ra_of_asc_node": 343.0801,
        "meta_arg_of_pericenter": 315.5746,
        "meta_mean_anomaly": 243.3847,
        "meta_ephemeris_type": 0,
        "meta_classification_type": "U",
        "meta_norad_cat_id": 54244,
        "meta_element_set_no": 999,
        "meta_rev_at_epoch": 1119,
        "meta_bstar": 0,
        "meta_mean_motion_dot": -1.6e-06,
        "meta_mean_motion_ddot": 0,
        "tle_line1": "1 54244U 22153B   25338.55390161 -.00000160  00000+0  00000+0 0  9999",
        "tle_line2": "2 54244   0.0107 343.0801 0002788 315.5746 243.3847  1.00275803 11193"
      },
      "geometry": {
        "type": "Point",
        "coordinates": [
          -123.83398401193568,
          -0.03396445656292787
        ]
      }
    }
  ]
}